0 COSMOS 2251 DEB
1 34564U 93036VA  13282.05735142  .00000414  00000-0  15328-3 0  2215
2 34564 074.0343 140.5498 0020924 252.1000 262.6387 14.35357448241693
0 COSMOS 2251 DEB
1 34564U 93036VA  13283.71326470  .00000424  00000-0  15664-3 0  2224
2 34564 074.0341 137.5128 0020908 248.8421 179.0376 14.35359013241934
0 COSMOS 2251 DEB
1 34564U 93036VA  13286.03141934  .00000445  00000-0  16409-3 0  2245
2 34564 074.0337 133.2612 0020829 244.2079 277.4443 14.35360780242269
0 COSMOS 2251 DEB
1 34564U 93036VA  13287.27733919  .00000474  00000-0  17405-3 0  2252
2 34564 074.0335 130.9759 0020823 241.8231 235.2808 14.35361908242440
0 COSMOS 2251 DEB
1 34564U 93036VA  13288.74240925  .00000571  00000-0  20783-3 0  2267
2 34564 074.0335 128.2887 0020764 238.8328 245.6932 14.35363875242650
0 COSMOS 2251 DEB
1 34564U 93036VA  13289.99674867  .00000493  00000-0  18047-3 0  2275
2 34564 074.0336 125.9881 0020707 236.2878 247.1930 14.35365520242832
0 COSMOS 2251 DEB
1 34564U 93036VA  13291.17938779  .00000470  00000-0  17268-3 0  2283
2 34564 074.0337 123.8189 0020679 233.9823 238.1131 14.35366964243009
0 COSMOS 2251 DEB
1 34564U 93036VA  13292.22662156  .00000567  00000-0  20643-3 0  2292
2 34564 074.0339 121.8983 0020655 231.8412 249.4751 14.35367647243154
0 COSMOS 2251 DEB
1 34564U 93036VA  13293.33053248  .00000644  00000-0  23292-3 0  2302
2 34564 074.0340 119.8736 0020626 229.6500 193.6420 14.35368851243319
0 COSMOS 2251 DEB
1 34564U 93036VA  13294.66691071  .00000707  00000-0  25497-3 0  2311
2 34564 074.0340 117.4224 0020581 226.9754 259.0492 14.35370822243504
0 COSMOS 2251 DEB
1 34564U 93036VA  13295.83945838  .00000747  00000-0  26901-3 0  2320
2 34564 074.0340 115.2718 0020545 224.6415 197.8979 14.35372345243676
